[{"OBJECT_NAME":"STARLINK-2099","OBJECT_ID":"2021-005AG","EPOCH":"2026-03-09T05:25:23.086560","MEAN_MOTION":15.30188698,"ECCENTRICITY":0.00013497,"INCLINATION":53.1612,"RA_OF_ASC_NODE":15.6956,"ARG_OF_PERICENTER":92.1215,"MEAN_ANOMALY":267.9941,"EPHEMERIS_TYPE":0,"CLASSIFICATION_TYPE":"U","NORAD_CAT_ID":47379,"ELEMENT_SET_NO":999,"REV_AT_EPOCH":28365,"BSTAR":2.4152043e-5,"MEAN_MOTION_DOT":3.56e-6,"MEAN_MOTION_DDOT":0},{"OBJECT_NAME":"TRANSPORTER-10 OBJECT AG","OBJECT_ID":"2024-043AG","EPOCH":"2026-03-09T22:12:45.387648","MEAN_MOTION":15.30759727,"ECCENTRICITY":0.00093005,"INCLINATION":97.5471,"RA_OF_ASC_NODE":205.7101,"ARG_OF_PERICENTER":226.5958,"MEAN_ANOMALY":133.4509,"EPHEMERIS_TYPE":0,"CLASSIFICATION_TYPE":"U","NORAD_CAT_ID":59128,"ELEMENT_SET_NO":999,"REV_AT_EPOCH":11192,"BSTAR":0.00032170115,"MEAN_MOTION_DOT":9.498e-5,"MEAN_MOTION_DDOT":0}]
